0 ARIANE 44L DEB
1 24741U 91003H   13278.80029939 -.00000183  00000-0 -20886-2 0  2243
2 24741 006.6833 116.6131 6810324 035.9611 010.2702 02.64651425168095
0 ARIANE 44L DEB
1 24741U 91003H   13281.40324869 -.00000125  00000-0 -64628-3 0  2253
2 24741 006.6851 115.4296 6810084 038.2898 330.2037 02.64649877168162
0 ARIANE 44L DEB
1 24741U 91003H   13282.92910940 -.00000095  00000-0  15937-3 0  2267
2 24741 006.6860 114.7355 6809765 039.6559 343.9467 02.64649124168201
0 ARIANE 44L DEB
1 24741U 91003H   13286.73135951  .00000027  00000-0  19949-2 0  2272
2 24741 006.6873 113.0051 6808612 043.0611 006.4702 02.64648648168302
0 ARIANE 44L DEB
1 24741U 91003H   13292.78132183 -.00000015  00000-0  97634-3 0  2285
2 24741 006.6889 110.2548 6807125 048.4663 010.4524 02.64650549168460
